GLOBALSTAR M068         
1 32266U 07048D   25269.72257770 -.00000046  00000+0  31893-3 0  9996
2 32266  51.9915 352.7420 0000989  30.8610 137.6145 12.62828889830381
GLOBALSTAR M079         
1 37188U 10054A   25269.55678881 -.00000063  00000+0  22525-3 0  9997
2 37188  52.0030 191.2013 0000679  88.1214  83.6992 12.62267045689254
GLOBALSTAR M074         
1 37189U 10054B   25269.95892081 -.00000066  00000+0  20905-3 0  9995
2 37189  52.0009 189.2846 0000506  65.1347  14.1516 12.62271569689913
GLOBALSTAR M076         
1 37190U 10054C   25269.81760707 -.00000077  00000+0  14750-3 0  9994
2 37190  52.0022 189.8953 0000428  93.5506 302.9096 12.62265537689616
GLOBALSTAR M077         
1 37191U 10054D   25261.11398905 -.00000105  00000+0 -68518-5 0  9993
2 37191  52.0064 173.2575 0000611  67.5371  70.5425 12.62323380688888
GLOBALSTAR M075         
1 37192U 10054E   25269.90862301 -.00000074  00000+0  16464-3 0  9990
2 37192  51.9934 231.8176 0000404  64.9366 326.1509 12.62267877688696
GLOBALSTAR M073         
1 37193U 10054F   25269.67129937 -.00000077  00000+0  14875-3 0  9993
2 37193  52.0050 146.4384 0000762  89.4244 302.1790 12.62262905690656
GLOBALSTAR M083         
1 37739U 11033A   25269.78199187 -.00000096  00000+0  43124-4 0  9994
2 37739  51.9844  94.6902 0000960  93.6805  21.8441 12.62276251659686
GLOBALSTAR M088         
1 37740U 11033B   25269.68425328 -.00000079  00000+0  13974-3 0  9994
2 37740  52.0245   0.7783 0000591  95.9339  54.4693 12.62268018655215
GLOBALSTAR M091         
1 37741U 11033C   25269.61994140 -.00000086  00000+0  97543-4 0  9994
2 37741  52.0016 324.3293 0000605  93.7863  65.4132 12.62259925655999
GLOBALSTAR M085         
1 37742U 11033D   25269.97155479 -.00000093  00000+0  62280-4 0  9996
2 37742  52.0118 274.3214 0000576  84.4624 292.8716 12.62265037656557
GLOBALSTAR M081         
1 37743U 11033E   25269.39168911 -.00000085  00000+0  10699-3 0  9995
2 37743  51.9949 278.8237 0000448 106.1217  34.2578 12.62268605656626
GLOBALSTAR M089         
1 37744U 11033F   25269.67531419 -.00000084  00000+0  10844-3 0  9995
2 37744  51.9917 232.1662 0000211  42.7553 127.8887 12.62267069657506
GLOBALSTAR M084         
1 38040U 11080A   25269.83202196 -.00000105  00000+0 -43553-5 0  9992
2 38040  51.9993  99.0298 0000506  93.8217   8.9494 12.62269123635508
GLOBALSTAR M080         
1 38041U 11080B   25269.97311354 -.00000102  00000+0  76037-5 0  9994
2 38041  52.0045 100.2283 0001171  68.1538  85.3111 12.62269358635648
GLOBALSTAR M082         
1 38042U 11080C   25269.82887997 -.00000112  00000+0 -45270-4 0  9996
2 38042  52.0082  56.1367 0001096  82.9727  65.6008 12.62268774636336
GLOBALSTAR M092         
1 38043U 11080D   25269.78839784 -.00000098  00000+0  34339-4 0  9999
2 38043  52.0071 146.6464 0000736  73.4333  10.1389 12.62266041634785
GLOBALSTAR M090         
1 38044U 11080E   25269.77458756 -.00000112  00000+0 -45934-4 0  9996
2 38044  52.0135  50.1727 0000913 101.3551  39.8388 12.62262449636448
GLOBALSTAR M086         
1 38045U 11080F   25269.69248735 -.00000092  00000+0  65022-4 0  9998
2 38045  51.9909  50.7809 0001260 153.2585 219.6851 12.62277474636382
GLOBALSTAR M097         
1 39072U 13005A   25269.55860223 -.00000083  00000+0  11499-3 0  9993
2 39072  52.0066 325.8481 0000589 112.4105 247.6824 12.62265794583619
GLOBALSTAR M093         
1 39073U 13005B   25269.61175431 -.00000083  00000+0  11424-3 0  9999
2 39073  52.0120 318.9332 0000787 114.3823 245.7126 12.62264630583574
GLOBALSTAR M094         
1 39074U 13005C   25269.92822735 -.00000091  00000+0  70337-4 0  9998
2 39074  51.9945 232.3450 0000602  86.3855 273.7081 12.62269979585223
GLOBALSTAR M096         
1 39075U 13005D   25269.46631252 -.00000103  00000+0  24983-5 0  9991
2 39075  52.0068 282.3473 0000578  96.6889 263.4043 12.62267077584089
GLOBALSTAR M078         
1 39076U 13005E   25269.51946087 -.00000180  00000+0 -42381-3 0  9999
2 39076  51.9902   6.5578 0001275  66.7867 293.3134 12.62258421582710
GLOBALSTAR M095         
1 39077U 13005F   25269.62463754 -.00000085  00000+0  10612-3 0  9992
2 39077  52.0111   3.4665 0001074  95.4234 264.6756 12.62259963582580
GLOBALSTAR M087         
1 52888U 22064A   25269.71748361 -.00000080  00000+0  13268-3 0  9997
2 52888  51.9982 144.5768 0000940  81.4354 278.6620 12.62288881157864
